CCSDS_OMM_VERS = 2.0
CREATION_DATE  = 
ORIGINATOR     = 

OBJECT_NAME    = ERS-1
OBJECT_ID      = 1991-050A
CENTER_NAME    = EARTH
REF_FRAME      = TEME
TIME_SYSTEM    = UTC
MEAN_ELEMENT_THEORY = SGP/SGP4

EPOCH          = 2026-03-20T07:58:47.336448
MEAN_MOTION    = 14.39456904
ECCENTRICITY   = .0032219
INCLINATION    = 98.7874
RA_OF_ASC_NODE = 97.8344
ARG_OF_PERICENTER = 168.8149
MEAN_ANOMALY   = 191.3761

EPHEMERIS_TYPE = 0
CLASSIFICATION_TYPE = U
NORAD_CAT_ID   = 21574
ELEMENT_SET_NO = 999
REV_AT_EPOCH   = 81726
BSTAR          = .92306E-4
MEAN_MOTION_DOT = .243E-5
MEAN_MOTION_DDOT = 0

CCSDS_OMM_VERS = 2.0
CREATION_DATE  = 
ORIGINATOR     = 

OBJECT_NAME    = ARIANE 40 R/B
OBJECT_ID      = 1991-050F
CENTER_NAME    = EARTH
REF_FRAME      = TEME
TIME_SYSTEM    = UTC
MEAN_ELEMENT_THEORY = SGP/SGP4

EPOCH          = 2026-03-20T10:15:33.295680
MEAN_MOTION    = 14.42900784
ECCENTRICITY   = .0003998
INCLINATION    = 98.1990
RA_OF_ASC_NODE = 131.2599
ARG_OF_PERICENTER = 57.6464
MEAN_ANOMALY   = 302.5113

EPHEMERIS_TYPE = 0
CLASSIFICATION_TYPE = U
NORAD_CAT_ID   = 21610
ELEMENT_SET_NO = 999
REV_AT_EPOCH   = 82054
BSTAR          = .79555E-4
MEAN_MOTION_DOT = .224E-5
MEAN_MOTION_DDOT = 0

CCSDS_OMM_VERS = 2.0
CREATION_DATE  = 
ORIGINATOR     = 

OBJECT_NAME    = INTERCOSMOS 25
OBJECT_ID      = 1991-086A
CENTER_NAME    = EARTH
REF_FRAME      = TEME
TIME_SYSTEM    = UTC
MEAN_ELEMENT_THEORY = SGP/SGP4

EPOCH          = 2026-03-20T13:18:11.476800
MEAN_MOTION    = 12.12036979
ECCENTRICITY   = .1486805
INCLINATION    = 82.6033
RA_OF_ASC_NODE = 303.4412
ARG_OF_PERICENTER = 93.5248
MEAN_ANOMALY   = 283.6435

EPHEMERIS_TYPE = 0
CLASSIFICATION_TYPE = U
NORAD_CAT_ID   = 21819
ELEMENT_SET_NO = 999
REV_AT_EPOCH   = 49800
BSTAR          = .30065E-3
MEAN_MOTION_DOT = .1572E-4
MEAN_MOTION_DDOT = 0

CCSDS_OMM_VERS = 2.0
CREATION_DATE  = 
ORIGINATOR     = 

OBJECT_NAME    = SL-8 R/B
OBJECT_ID      = 1992-008B
CENTER_NAME    = EARTH
REF_FRAME      = TEME
TIME_SYSTEM    = UTC
MEAN_ELEMENT_THEORY = SGP/SGP4

EPOCH          = 2026-03-20T11:27:40.152384
MEAN_MOTION    = 13.75969630
ECCENTRICITY   = .0035888
INCLINATION    = 82.9223
RA_OF_ASC_NODE = 259.7509
ARG_OF_PERICENTER = 104.1540
MEAN_ANOMALY   = 285.3941

EPHEMERIS_TYPE = 0
CLASSIFICATION_TYPE = U
NORAD_CAT_ID   = 21876
ELEMENT_SET_NO = 999
REV_AT_EPOCH   = 71090
BSTAR          = -.12165E-4
MEAN_MOTION_DOT = .4E-7
MEAN_MOTION_DDOT = 0

CCSDS_OMM_VERS = 2.0
CREATION_DATE  = 
ORIGINATOR     = 

OBJECT_NAME    = SL-8 R/B
OBJECT_ID      = 1992-020B
CENTER_NAME    = EARTH
REF_FRAME      = TEME
TIME_SYSTEM    = UTC
MEAN_ELEMENT_THEORY = SGP/SGP4

EPOCH          = 2026-03-20T10:44:09.713760
MEAN_MOTION    = 13.75550192
ECCENTRICITY   = .0027541
INCLINATION    = 82.9320
RA_OF_ASC_NODE = 145.7750
ARG_OF_PERICENTER = 267.3221
MEAN_ANOMALY   = 102.8692

EPHEMERIS_TYPE = 0
CLASSIFICATION_TYPE = U
NORAD_CAT_ID   = 21938
ELEMENT_SET_NO = 999
REV_AT_EPOCH   = 70261
BSTAR          = .35771E-4
MEAN_MOTION_DOT = .49E-6
MEAN_MOTION_DDOT = 0

CCSDS_OMM_VERS = 2.0
CREATION_DATE  = 
ORIGINATOR     = 

OBJECT_NAME    = USA 81
OBJECT_ID      = 1992-023A
CENTER_NAME    = EARTH
REF_FRAME      = TEME
TIME_SYSTEM    = UTC
MEAN_ELEMENT_THEORY = SGP/SGP4

EPOCH          = 2026-03-20T10:00:18.550368
MEAN_MOTION    = 14.32371242
ECCENTRICITY   = .0002145
INCLINATION    = 85.0064
RA_OF_ASC_NODE = 125.2516
ARG_OF_PERICENTER = 70.2283
MEAN_ANOMALY   = 289.9141

EPHEMERIS_TYPE = 0
CLASSIFICATION_TYPE = U
NORAD_CAT_ID   = 21949
ELEMENT_SET_NO = 999
REV_AT_EPOCH   = 9632
BSTAR          = .49336E-4
MEAN_MOTION_DOT = .153E-5
MEAN_MOTION_DDOT = 0

CCSDS_OMM_VERS = 2.0
CREATION_DATE  = 
ORIGINATOR     = 

OBJECT_NAME    = COSMOS 2219
OBJECT_ID      = 1992-076A
CENTER_NAME    = EARTH
REF_FRAME      = TEME
TIME_SYSTEM    = UTC
MEAN_ELEMENT_THEORY = SGP/SGP4

EPOCH          = 2026-03-20T11:38:57.620832
MEAN_MOTION    = 14.14093140
ECCENTRICITY   = .0018346
INCLINATION    = 71.0639
RA_OF_ASC_NODE = 355.5023
ARG_OF_PERICENTER = 191.8062
MEAN_ANOMALY   = 168.2633

EPHEMERIS_TYPE = 0
CLASSIFICATION_TYPE = U
NORAD_CAT_ID   = 22219
ELEMENT_SET_NO = 999
REV_AT_EPOCH   = 71990
BSTAR          = -.47026E-4
MEAN_MOTION_DOT = -.137E-5
MEAN_MOTION_DDOT = 0

CCSDS_OMM_VERS = 2.0
CREATION_DATE  = 
ORIGINATOR     = 

OBJECT_NAME    = SL-16 R/B
OBJECT_ID      = 1992-076B
CENTER_NAME    = EARTH
REF_FRAME      = TEME
TIME_SYSTEM    = UTC
MEAN_ELEMENT_THEORY = SGP/SGP4

EPOCH          = 2026-03-20T11:43:41.009376
MEAN_MOTION    = 14.16861257
ECCENTRICITY   = .0010634
INCLINATION    = 71.0006
RA_OF_ASC_NODE = 165.6278
ARG_OF_PERICENTER = 76.4105
MEAN_ANOMALY   = 295.4419

EPHEMERIS_TYPE = 0
CLASSIFICATION_TYPE = U
NORAD_CAT_ID   = 22220
ELEMENT_SET_NO = 999
REV_AT_EPOCH   = 72336
BSTAR          = .16502E-3
MEAN_MOTION_DOT = .283E-5
MEAN_MOTION_DDOT = 0

CCSDS_OMM_VERS = 2.0
CREATION_DATE  = 
ORIGINATOR     = 

OBJECT_NAME    = COSMOS 2221
OBJECT_ID      = 1992-080A
CENTER_NAME    = EARTH
REF_FRAME      = TEME
TIME_SYSTEM    = UTC
MEAN_ELEMENT_THEORY = SGP/SGP4

EPOCH          = 2026-03-20T11:18:50.329440
MEAN_MOTION    = 14.96242273
ECCENTRICITY   = .0014964
INCLINATION    = 82.5000
RA_OF_ASC_NODE = 268.7503
ARG_OF_PERICENTER = 151.5757
MEAN_ANOMALY   = 208.6284

EPHEMERIS_TYPE = 0
CLASSIFICATION_TYPE = U
NORAD_CAT_ID   = 22236
ELEMENT_SET_NO = 999
REV_AT_EPOCH   = 78240
BSTAR          = .16166E-3
MEAN_MOTION_DOT = .1853E-4
MEAN_MOTION_DDOT = 0

CCSDS_OMM_VERS = 2.0
CREATION_DATE  = 
ORIGINATOR     = 

OBJECT_NAME    = SL-16 R/B
OBJECT_ID      = 1992-093B
CENTER_NAME    = EARTH
REF_FRAME      = TEME
TIME_SYSTEM    = UTC
MEAN_ELEMENT_THEORY = SGP/SGP4

EPOCH          = 2026-03-20T11:33:10.343808
MEAN_MOTION    = 14.15448911
ECCENTRICITY   = .0006302
INCLINATION    = 71.0238
RA_OF_ASC_NODE = 341.6133
ARG_OF_PERICENTER = 282.8588
MEAN_ANOMALY   = 77.1830

EPHEMERIS_TYPE = 0
CLASSIFICATION_TYPE = U
NORAD_CAT_ID   = 22285
ELEMENT_SET_NO = 999
REV_AT_EPOCH   = 71468
BSTAR          = .16513E-3
MEAN_MOTION_DOT = .275E-5
MEAN_MOTION_DDOT = 0

CCSDS_OMM_VERS = 2.0
CREATION_DATE  = 
ORIGINATOR     = 

OBJECT_NAME    = COSMOS 2228
OBJECT_ID      = 1992-094A
CENTER_NAME    = EARTH
REF_FRAME      = TEME
TIME_SYSTEM    = UTC
MEAN_ELEMENT_THEORY = SGP/SGP4

EPOCH          = 2026-03-20T11:32:02.976000
MEAN_MOTION    = 14.97243472
ECCENTRICITY   = .0016605
INCLINATION    = 82.5171
RA_OF_ASC_NODE = 226.9775
ARG_OF_PERICENTER = 265.3393
MEAN_ANOMALY   = 94.5933

EPHEMERIS_TYPE = 0
CLASSIFICATION_TYPE = U
NORAD_CAT_ID   = 22286
ELEMENT_SET_NO = 999
REV_AT_EPOCH   = 77767
BSTAR          = .19624E-3
MEAN_MOTION_DOT = .2303E-4
MEAN_MOTION_DDOT = 0

CCSDS_OMM_VERS = 2.0
CREATION_DATE  = 
ORIGINATOR     = 

OBJECT_NAME    = SL-16 R/B
OBJECT_ID      = 1993-016B
CENTER_NAME    = EARTH
REF_FRAME      = TEME
TIME_SYSTEM    = UTC
MEAN_ELEMENT_THEORY = SGP/SGP4

EPOCH          = 2026-03-20T09:09:20.228832
MEAN_MOTION    = 14.15307268
ECCENTRICITY   = .0012327
INCLINATION    = 71.0081
RA_OF_ASC_NODE = 192.7264
ARG_OF_PERICENTER = 300.1830
MEAN_ANOMALY   = 59.8071

EPHEMERIS_TYPE = 0
CLASSIFICATION_TYPE = U
NORAD_CAT_ID   = 22566
ELEMENT_SET_NO = 999
REV_AT_EPOCH   = 70368
BSTAR          = -.11106E-3
MEAN_MOTION_DOT = -.264E-5
MEAN_MOTION_DDOT = 0

